{
  "type": "FeatureCollection",
  "features": [
    {
      "type": "Feature",
      "properties": {
        "norad_id": 30570,
        "name": "FENGYUN 1C DEB",
        "group": "fengyun-1c-debris",
        "lat": 71.57739458992582,
        "lon": -17.466746222987638,
        "alt_km": 862.3466982922873,
        "timestamp": "2025-12-03T04:52:29.914512+00:00",
        "meta_object_name": "FENGYUN 1C DEB",
        "meta_object_id": "1999-025ALL",
        "meta_epoch": "2025-12-02T14:00:58.510656",
        "meta_mean_motion": 14.14239276,
        "meta_eccentricity": 0.0034834,
        "meta_inclination": 98.7164,
        "meta_ra_of_asc_node": 9.3529,
        "meta_arg_of_pericenter": 241.2186,
        "meta_mean_anomaly": 282.3152,
        "meta_ephemeris_type": 0,
        "meta_classification_type": "U",
        "meta_norad_cat_id": 30570,
        "meta_element_set_no": 999,
        "meta_rev_at_epoch": 96854,
        "meta_bstar": 0.00059618559,
        "meta_mean_motion_dot": 1.101e-05,
        "meta_mean_motion_ddot": 0,
        "tle_line1": "1 30570U 99025ALL 25336.58401054  .00001101  00000+0  59619-3 0  9991",
        "tle_line2": "2 30570  98.7164   9.3529 0034834 241.2186 282.3152 14.14239276968540"
      },
      "geometry": {
        "type": "Point",
        "coordinates": [
          -17.466746222987638,
          71.57739458992582
        ]
      }
    },
    {
      "type": "Feature",
      "properties": {
        "norad_id": 30571,
        "name": "FENGYUN 1C DEB",
        "group": "fengyun-1c-debris",
        "lat": 46.826886080613654,
        "lon": -166.88313625407253,
        "alt_km": 862.3233856153993,
        "timestamp": "2025-12-03T04:52:29.914522+00:00",
        "meta_object_name": "FENGYUN 1C DEB",
        "meta_object_id": "1999-025ALM",
        "meta_epoch": "2025-12-02T13:38:44.779776",
        "meta_mean_motion": 14.10679855,
        "meta_eccentricity": 0.00205146,
        "meta_inclination": 98.7323,
        "meta_ra_of_asc_node": 3.0715,
        "meta_arg_of_pericenter": 263.8055,
        "meta_mean_anomaly": 248.022,
        "meta_ephemeris_type": 0,
        "meta_classification_type": "U",
        "meta_norad_cat_id": 30571,
        "meta_element_set_no": 999,
        "meta_rev_at_epoch": 96743,
        "meta_bstar": 0.00030309197,
        "meta_mean_motion_dot": 4.99e-06,
        "meta_mean_motion_ddot": 0,
        "tle_line1": "1 30571U 99025ALM 25336.56857384  .00000499  00000+0  30309-3 0  9995",
        "tle_line2": "2 30571  98.7323   3.0715 0020514 263.8055 248.0220 14.10679855967430"
      },
      "geometry": {
        "type": "Point",
        "coordinates": [
          -166.88313625407253,
          46.826886080613654
        ]
      }
    },
    {
      "type": "Feature",
      "properties": {
        "norad_id": 30572,
        "name": "FENGYUN 1C DEB",
        "group": "fengyun-1c-debris",
        "lat": 76.81043678349488,
        "lon": -131.69812247795417,
        "alt_km": 867.4240467234431,
        "timestamp": "2025-12-03T04:52:29.914532+00:00",
        "meta_object_name": "FENGYUN 1C DEB",
        "meta_object_id": "1999-025ALN",
        "meta_epoch": "2025-12-02T20:41:54.060864",
        "meta_mean_motion": 14.08905291,
        "meta_eccentricity": 0.0021451,
        "meta_inclination": 98.7734,
        "meta_ra_of_asc_node": 6.75,
        "meta_arg_of_pericenter": 322.608,
        "meta_mean_anomaly": 210.0402,
        "meta_ephemeris_type": 0,
        "meta_classification_type": "U",
        "meta_norad_cat_id": 30572,
        "meta_element_set_no": 999,
        "meta_rev_at_epoch": 96622,
        "meta_bstar": 0.00034822,
        "meta_mean_motion_dot": 5.6e-06,
        "meta_mean_motion_ddot": 0,
        "tle_line1": "1 30572U 99025ALN 25336.86243126  .00000560  00000+0  34822-3 0  9995",
        "tle_line2": "2 30572  98.7734   6.7500 0021451 322.6080 210.0402 14.08905291966222"
      },
      "geometry": {
        "type": "Point",
        "coordinates": [
          -131.69812247795417,
          76.81043678349488
        ]
      }
    },
    {
      "type": "Feature",
      "properties": {
        "norad_id": 30573,
        "name": "FENGYUN 1C DEB",
        "group": "fengyun-1c-debris",
        "lat": -39.97021787892549,
        "lon": -173.1954403780441,
        "alt_km": 841.815746826549,
        "timestamp": "2025-12-03T04:52:29.914542+00:00",
        "meta_object_name": "FENGYUN 1C DEB",
        "meta_object_id": "1999-025ALP",
        "meta_epoch": "2025-12-02T14:50:25.839168",
        "meta_mean_motion": 14.13727372,
        "meta_eccentricity": 0.0087919,
        "meta_inclination": 99.2283,
        "meta_ra_of_asc_node": 14.0335,
        "meta_arg_of_pericenter": 302.4428,
        "meta_mean_anomaly": 184.5577,
        "meta_ephemeris_type": 0,
        "meta_classification_type": "U",
        "meta_norad_cat_id": 30573,
        "meta_element_set_no": 999,
        "meta_rev_at_epoch": 96054,
        "meta_bstar": 0.0021850732,
        "meta_mean_motion_dot": 4.24e-05,
        "meta_mean_motion_ddot": 0,
        "tle_line1": "1 30573U 99025ALP 25336.61835462  .00004240  00000+0  21851-2 0  9995",
        "tle_line2": "2 30573  99.2283  14.0335 0087919 302.4428 184.5577 14.13727372960544"
      },
      "geometry": {
        "type": "Point",
        "coordinates": [
          -173.1954403780441,
          -39.97021787892549
        ]
      }
    },
    {
      "type": "Feature",
      "properties": {
        "norad_id": 30574,
        "name": "FENGYUN 1C DEB",
        "group": "fengyun-1c-debris",
        "lat": -42.35922541729356,
        "lon": 149.5794336828434,
        "alt_km": 886.6524015332052,
        "timestamp": "2025-12-03T04:52:29.914553+00:00",
        "meta_object_name": "FENGYUN 1C DEB",
        "meta_object_id": "1999-025ALQ",
        "meta_epoch": "2025-12-02T09:54:02.421792",
        "meta_mean_motion": 13.77447627,
        "meta_eccentricity": 0.02187109,
        "meta_inclination": 99.3022,
        "meta_ra_of_asc_node": 140.2104,
        "meta_arg_of_pericenter": 14.8932,
        "meta_mean_anomaly": 345.8527,
        "meta_ephemeris_type": 0,
        "meta_classification_type": "U",
        "meta_norad_cat_id": 30574,
        "meta_element_set_no": 999,
        "meta_rev_at_epoch": 93626,
        "meta_bstar": 0.0023818857,
        "meta_mean_motion_dot": 2.784e-05,
        "meta_mean_motion_ddot": 0,
        "tle_line1": "1 30574U 99025ALQ 25336.41252803  .00002784  00000+0  23819-2 0  9993",
        "tle_line2": "2 30574  99.3022 140.2104 0218710  14.8932 345.8527 13.77447627936262"
      },
      "geometry": {
        "type": "Point",
        "coordinates": [
          149.5794336828434,
          -42.35922541729356
        ]
      }
    },
    {
      "type": "Feature",
      "properties": {
        "norad_id": 30575,
        "name": "FENGYUN 1C DEB",
        "group": "fengyun-1c-debris",
        "lat": 66.33281144936578,
        "lon": -90.92096846141735,
        "alt_km": 786.2300677165886,
        "timestamp": "2025-12-03T04:52:29.914574+00:00",
        "meta_object_name": "FENGYUN 1C DEB",
        "meta_object_id": "1999-025ALR",
        "meta_epoch": "2025-12-02T05:18:45.858240",
        "meta_mean_motion": 14.39949645,
        "meta_eccentricity": 0.0053809,
        "meta_inclination": 99.1709,
        "meta_ra_of_asc_node": 66.3998,
        "meta_arg_of_pericenter": 267.5023,
        "meta_mean_anomaly": 158.2528,
        "meta_ephemeris_type": 0,
        "meta_classification_type": "U",
        "meta_norad_cat_id": 30575,
        "meta_element_set_no": 999,
        "meta_rev_at_epoch": 98066,
        "meta_bstar": 0.0013024,
        "meta_mean_motion_dot": 4.12e-05,
        "meta_mean_motion_ddot": 0,
        "tle_line1": "1 30575U 99025ALR 25336.22136410  .00004120  00000+0  13024-2 0  9991",
        "tle_line2": "2 30575  99.1709  66.3998 0053809 267.5023 158.2528 14.39949645980662"
      },
      "geometry": {
        "type": "Point",
        "coordinates": [
          -90.92096846141735,
          66.33281144936578
        ]
      }
    },
    {
      "type": "Feature",
      "properties": {
        "norad_id": 30577,
        "name": "FENGYUN 1C DEB",
        "group": "fengyun-1c-debris",
        "lat": 72.41876154031775,
        "lon": -17.805688450022988,
        "alt_km": 860.2628919448644,
        "timestamp": "2025-12-03T04:52:29.914586+00:00",
        "meta_object_name": "FENGYUN 1C DEB",
        "meta_object_id": "1999-025ALT",
        "meta_epoch": "2025-12-02T15:30:38.203200",
        "meta_mean_motion": 14.11115387,
        "meta_eccentricity": 0.00286131,
        "meta_inclination": 98.7717,
        "meta_ra_of_asc_node": 10.8127,
        "meta_arg_of_pericenter": 311.7501,
        "meta_mean_anomaly": 175.4911,
        "meta_ephemeris_type": 0,
        "meta_classification_type": "U",
        "meta_norad_cat_id": 30577,
        "meta_element_set_no": 999,
        "meta_rev_at_epoch": 96642,
        "meta_bstar": 0.00060945078,
        "meta_mean_motion_dot": 1.058e-05,
        "meta_mean_motion_ddot": 0,
        "tle_line1": "1 30577U 99025ALT 25336.64627550  .00001058  00000+0  60945-3 0  9991",
        "tle_line2": "2 30577  98.7717  10.8127 0028613 311.7501 175.4911 14.11115387966427"
      },
      "geometry": {
        "type": "Point",
        "coordinates": [
          -17.805688450022988,
          72.41876154031775
        ]
      }
    }
  ]
}